{"type": "FeatureCollection", "features": [{"type": "Feature", "properties": {}, "geometry": {"type": "LineString", "coordinates": [[-70.953, 42.344], [-71.005, 42.347], [-71.022, 42.344], [-71.042, 42.339], [-71.01, 42.338], [-71.047, 42.327], [-71.033, 42.314], [-71.053, 42.307], [-71.042, 42.279], [-71.039, 42.301], [-71.023, 42.294], [-70.991, 42.308], [-71.018, 42.281], [-70.973, 42.263], [-70.955, 42.28], [-70.963, 42.248], [-70.994, 42.256], [-70.966, 42.248], [-70.974, 42.222], [-70.949, 42.232], [-70.966, 42.245], [-70.925, 42.263], [-70.939, 42.247], [-70.923, 42.22], [-70.931, 42.252], [-70.893, 42.263], [-70.885, 42.245], [-70.871, 42.261], [-70.881, 42.274], [-70.866, 42.255], [-70.858, 42.265], [-70.866, 42.277], [-70.889, 42.277], [-70.885, 42.305], [-70.919, 42.306], [-70.883, 42.31], [-70.853, 42.269], [-70.796, 42.256], [-70.804, 42.245], [-70.79, 42.255], [-70.794, 42.24], [-70.773, 42.237], [-70.767, 42.254], [-70.757, 41.723], [-70.766, 41.677], [-70.765, 41.641], [-70.807, 41.658], [-70.825, 41.649], [-70.803, 41.64], [-70.809, 41.625], [-70.818, 41.637], [-70.817, 41.623], [-70.854, 41.626], [-70.868, 41.639], [-70.842, 41.596], [-70.852, 41.582], [-70.874, 41.628], [-70.913, 41.62], [-70.901, 41.591], [-70.93, 41.613], [-70.933, 41.58], [-70.95, 41.585], [-70.928, 41.539], [-70.946, 41.538], [-70.953, 41.514], [-70.969, 41.536], [-70.982, 41.509], [-71.018, 41.51], [-71.038, 41.495], [-71.09, 41.511], [-71.195, 41.456], [-71.221, 41.561], [-71.204, 41.596], [-71.216, 41.626], [-71.195, 41.681], [-71.157, 41.712], [-71.196, 41.707], [-71.191, 41.741], [-71.202, 41.711], [-71.225, 41.731], [-71.242, 41.698], [-71.262, 41.729], [-71.237, 41.668], [-71.262, 41.643], [-71.286, 41.682], [-71.301, 41.649], [-71.288, 41.737], [-71.302, 41.706], [-71.308, 41.722], [-71.339, 41.725], [-71.396, 41.818], [-71.379, 41.787], [-71.391, 41.745], [-71.376, 41.744], [-71.394, 41.733], [-71.357, 41.718], [-71.375, 41.712], [-71.362, 41.692], [-71.378, 41.667], [-71.393, 41.684], [-71.45, 41.685], [-71.457, 41.648], [-71.441, 41.667], [-71.408, 41.663], [-71.445, 41.642], [-71.408, 41.65], [-71.403, 41.626], [-71.42, 41.621], [-71.402, 41.615], [-71.417, 41.605], [-71.404, 41.59], [-71.438, 41.574], [-71.439, 41.587], [-71.458, 41.583], [-71.445, 41.573], [-71.459, 41.564], [-71.438, 41.573], [-71.415, 41.53], [-71.418, 41.477], [-71.439, 41.44], [-71.445, 41.519], [-71.452, 41.454], [-71.474, 41.439], [-71.441, 41.442], [-71.482, 41.36], [-71.505, 41.374], [-71.553, 41.374], [-71.714, 41.331], [-71.752, 41.325], [-71.786, 41.338], [-71.81, 41.323], [-71.763, 41.328], [-71.859, 41.303], [-71.887, 41.307], [-71.826, 41.336], [-71.837, 41.367], [-71.831, 41.343], [-71.86, 41.322], [-71.881, 41.346], [-71.905, 41.327], [-71.915, 41.342], [-71.921, 41.328], [-71.953, 41.333], [-71.955, 41.354], [-71.97, 41.351], [-71.96, 41.389], [-71.989, 41.316], [-72.004, 41.332], [-72.011, 41.307], [-72.025, 41.335], [-72.03, 41.312], [-72.051, 41.319], [-72.036, 41.317], [-72.042, 41.32], [-72.033, 41.334], [-72.038, 41.346], [-72.036, 41.33], [-72.049, 41.32], [-72.058, 41.329], [-72.066, 41.315], [-72.094, 41.398], [-72.094, 41.431], [-72.059, 41.468], [-72.081, 41.524], [-72.083, 41.495], [-72.097, 41.495], [-72.072, 41.464], [-72.089, 41.44], [-72.105, 41.453], [-72.088, 41.323], [-72.112, 41.299], [-72.144, 41.303], [-72.148, 41.319], [-72.173, 41.31], [-72.176, 41.354], [-72.187, 41.347], [-72.192, 41.368], [-72.192, 41.333], [-72.177, 41.323], [-72.202, 41.315], [-72.205, 41.286], [-72.218, 41.314]]}}, {"type": "Feature", "properties": {}, "geometry": {"type": "LineString", "coordinates": [[-71.544, 41.162], [-71.577, 41.148], [-71.612, 41.154], [-71.593, 41.199], [-71.566, 41.179], [-71.575, 41.202], [-71.588, 41.197], [-71.578, 41.233], [-71.556, 41.216], [-71.566, 41.184], [-71.544, 41.162]]}}, {"type": "Feature", "properties": {}, "geometry": {"type": "LineString", "coordinates": [[-72.028, 41.263], [-72.021, 41.276], [-72.008, 41.259], [-71.991, 41.281], [-71.922, 41.292], [-72.003, 41.253], [-72.038, 41.25], [-72.028, 41.263]]}}, {"type": "Feature", "properties": {}, "geometry": {"type": "LineString", "coordinates": [[-71.329, 41.632], [-71.303, 41.606], [-71.325, 41.579], [-71.326, 41.624], [-71.353, 41.64], [-71.345, 41.667], [-71.329, 41.632]]}}, {"type": "Feature", "properties": {}, "geometry": {"type": "LineString", "coordinates": [[-71.358, 41.479], [-71.375, 41.474], [-71.386, 41.488], [-71.4, 41.449], [-71.372, 41.574], [-71.358, 41.479]]}}, {"type": "Feature", "properties": {}, "geometry": {"type": "LineString", "coordinates": [[-71.322, 41.512], [-71.275, 41.62], [-71.221, 41.656], [-71.218, 41.626], [-71.24, 41.62], [-71.243, 41.593], [-71.228, 41.528], [-71.24, 41.476], [-71.288, 41.488], [-71.308, 41.452], [-71.356, 41.449], [-71.361, 41.465], [-71.337, 41.482], [-71.337, 41.469], [-71.316, 41.477], [-71.322, 41.512]]}}, {"type": "Feature", "properties": {"src": "state"}, "geometry": {"type": "LineString", "coordinates": [[-71.19573386833868, 41.67548492863928], [-71.13112657646576, 41.66002185420854], [-71.12035869448694, 41.49765957268572], [-71.19214457434575, 41.45814282691826], [-71.21368033830338, 41.545766915359145], [-71.2065017503175, 41.60074673555735], [-71.2423946902469, 41.61964604875048], [-71.23521610226102, 41.48305555794557], [-71.296234100141, 41.484773677326764], [-71.30341268812688, 41.45470658815587], [-71.33930562805628, 41.4486931703217], [-71.34289492204923, 41.495941453304525], [-71.28546621816218, 41.57755212391123], [-71.25675186621866, 41.63596818287182], [-71.19573386833868, 41.67548492863928]]}}, {"type": "Feature", "properties": {"src": "state"}, "geometry": {"type": "LineString", "coordinates": [[-71.36443068600686, 41.660880913899135], [-71.34648421604216, 41.66689433173331], [-71.30700198211981, 41.622223227822275], [-71.32494845208451, 41.61620980998809], [-71.36443068600686, 41.660880913899135]]}}, {"type": "Feature", "properties": {"src": "state"}, "geometry": {"type": "LineString", "coordinates": [[-71.40032362593625, 41.460720005990055], [-71.37878786197862, 41.50453205021049], [-71.39314503795038, 41.52429042309422], [-71.37519856798568, 41.573256825458245], [-71.36084139201392, 41.55607563164631], [-71.36084139201392, 41.48305555794557], [-71.40032362593625, 41.460720005990055]]}}, {"type": "Feature", "properties": {"src": "state"}, "geometry": {"type": "LineString", "coordinates": [[-71.61209197151972, 41.160049114281136], [-71.57260973759738, 41.22877388952889], [-71.55466326763268, 41.21674705386053], [-71.55107397363973, 41.15145851737517], [-71.61209197151972, 41.160049114281136]]}}, {"type": "Feature", "properties": {"src": "state"}, "geometry": {"type": "LineString", "coordinates": [[-71.85975325703257, 41.31983421673216], [-71.83103890508904, 41.34474694775947], [-71.84180678706787, 41.41003548424484], [-71.7987352591526, 41.41690796176961], [-71.78796737717377, 41.59645143710436], [-71.78796737717377, 41.7253103906939], [-71.7987352591526, 41.91602164200641], [-71.7987352591526, 42.007941028900284], [-71.38237715597155, 42.019108804878044], [-71.38237715597155, 41.892827030360294], [-71.33930562805628, 41.89798138850388], [-71.34648421604216, 41.82839755356553], [-71.32853774607746, 41.780290210892105], [-71.2603411602116, 41.7519412411024], [-71.2244482202822, 41.710706375953755], [-71.23521610226102, 41.672048689876895], [-71.28546621816218, 41.63682724256242], [-71.30700198211981, 41.672907749567486], [-71.29264480614806, 41.70297483873838], [-71.36084139201392, 41.749364062030615], [-71.38955574395744, 41.78372644965449], [-71.37160927399273, 41.672907749567486], [-71.45057374183742, 41.68751176430764], [-71.40750221392214, 41.654008436374355], [-71.4039129199292, 41.58957895957959], [-71.44698444784447, 41.580129302983025], [-71.41827009590095, 41.534599139381385], [-71.41827009590095, 41.47274684165841], [-71.45416303583036, 41.434089155581546], [-71.48287738777388, 41.37137779816798], [-71.52594891568916, 41.376532156311555], [-71.62285985349854, 41.361069081880814], [-71.71977079130791, 41.33186105240052], [-71.85616396303963, 41.30608926168261], [-71.85975325703257, 41.31983421673216]]}}]}